JILIN-1 GAOFEN 3A       
1 44312U 19032C   26068.74542089  .00016264  00000+0  55381-3 0  9993
2 44312  44.9746 183.2861 0002618 111.2900 248.8263 15.30271310372592
STARLINK-2166           
1 48558U 21041F   26068.54016696  .00002137  00000+0  84270-4 0  9994
2 48558  53.1605 127.4061 0001309  94.8263 265.2887 15.30192658264390
